{
  "type": "FeatureCollection",
  "features": [
    {
      "type": "Feature",
      "properties": {
        "norad_id": 34010,
        "name": "COSMOS 2251 DEB",
        "group": "cosmos-2251-debris",
        "lat": 56.40275903595069,
        "lon": -40.721654796614004,
        "alt_km": 504.8886029368423,
        "timestamp": "2025-12-07T18:50:17.108254+00:00",
        "meta_object_name": "COSMOS 2251 DEB",
        "meta_object_id": "1993-036GV",
        "meta_epoch": "2025-12-06T22:00:08.825184",
        "meta_mean_motion": 15.17164737,
        "meta_eccentricity": 0.00045583,
        "meta_inclination": 73.9996,
        "meta_ra_of_asc_node": 295.5027,
        "meta_arg_of_pericenter": 59.7073,
        "meta_mean_anomaly": 300.4573,
        "meta_ephemeris_type": 0,
        "meta_classification_type": "U",
        "meta_norad_cat_id": 34010,
        "meta_element_set_no": 999,
        "meta_rev_at_epoch": 89197,
        "meta_bstar": 0.0061426669,
        "meta_mean_motion_dot": 0.00124104,
        "meta_mean_motion_ddot": 0,
        "tle_line1": "1 34010U 93036GV  25340.91676881  .00124104  00000+0  61427-2 0  9992",
        "tle_line2": "2 34010  73.9996 295.5027 0004558  59.7073 300.4573 15.17164737891974"
      },
      "geometry": {
        "type": "Point",
        "coordinates": [
          -40.721654796614004,
          56.40275903595069
        ]
      }
    },
    {
      "type": "Feature",
      "properties": {
        "norad_id": 34011,
        "name": "COSMOS 2251 DEB",
        "group": "cosmos-2251-debris",
        "lat": 62.85247634326474,
        "lon": 125.35560647502352,
        "alt_km": 729.2532010981049,
        "timestamp": "2025-12-07T18:50:17.108266+00:00",
        "meta_object_name": "COSMOS 2251 DEB",
        "meta_object_id": "1993-036GW",
        "meta_epoch": "2025-12-07T00:00:14.422752",
        "meta_mean_motion": 14.41727991,
        "meta_eccentricity": 0.00352756,
        "meta_inclination": 74.0148,
        "meta_ra_of_asc_node": 340.7993,
        "meta_arg_of_pericenter": 66.3201,
        "meta_mean_anomaly": 294.165,
        "meta_ephemeris_type": 0,
        "meta_classification_type": "U",
        "meta_norad_cat_id": 34011,
        "meta_element_set_no": 999,
        "meta_rev_at_epoch": 87833,
        "meta_bstar": 0.0012394151,
        "meta_mean_motion_dot": 4.05e-05,
        "meta_mean_motion_ddot": 0,
        "tle_line1": "1 34011U 93036GW  25341.00016693  .00004050  00000+0  12394-2 0  9999",
        "tle_line2": "2 34011  74.0148 340.7993 0035275  66.3201 294.1650 14.41727991878331"
      },
      "geometry": {
        "type": "Point",
        "coordinates": [
          125.35560647502352,
          62.85247634326474
        ]
      }
    },
    {
      "type": "Feature",
      "properties": {
        "norad_id": 34014,
        "name": "COSMOS 2251 DEB",
        "group": "cosmos-2251-debris",
        "lat": -29.637977485490136,
        "lon": 119.77478327586395,
        "alt_km": 676.5945716998467,
        "timestamp": "2025-12-07T18:50:17.108277+00:00",
        "meta_object_name": "COSMOS 2251 DEB",
        "meta_object_id": "1993-036GZ",
        "meta_epoch": "2025-12-07T05:27:02.024064",
        "meta_mean_motion": 14.73029541,
        "meta_eccentricity": 0.00368348,
        "meta_inclination": 74.0178,
        "meta_ra_of_asc_node": 291.4775,
        "meta_arg_of_pericenter": 72.6526,
        "meta_mean_anomaly": 61.11,
        "meta_ephemeris_type": 0,
        "meta_classification_type": "U",
        "meta_norad_cat_id": 34014,
        "meta_element_set_no": 999,
        "meta_rev_at_epoch": 89222,
        "meta_bstar": 0.0016897503,
        "meta_mean_motion_dot": 0.00010964,
        "meta_mean_motion_ddot": 0,
        "tle_line1": "1 34014U 93036GZ  25341.22710676  .00010964  00000+0  16898-2 0  9992",
        "tle_line2": "2 34014  74.0178 291.4775 0036834  72.6526  61.1100 14.73029541892226"
      },
      "geometry": {
        "type": "Point",
        "coordinates": [
          119.77478327586395,
          -29.637977485490136
        ]
      }
    },
    {
      "type": "Feature",
      "properties": {
        "norad_id": 34015,
        "name": "COSMOS 2251 DEB",
        "group": "cosmos-2251-debris",
        "lat": -15.814692743459503,
        "lon": -6.456344242200684,
        "alt_km": 691.90004661278,
        "timestamp": "2025-12-07T18:50:17.108287+00:00",
        "meta_object_name": "COSMOS 2251 DEB",
        "meta_object_id": "1993-036HA",
        "meta_epoch": "2025-12-07T07:14:43.421280",
        "meta_mean_motion": 14.60142107,
        "meta_eccentricity": 0.00211355,
        "meta_inclination": 74.023,
        "meta_ra_of_asc_node": 169.8112,
        "meta_arg_of_pericenter": 267.0117,
        "meta_mean_anomaly": 271.5576,
        "meta_ephemeris_type": 0,
        "meta_classification_type": "U",
        "meta_norad_cat_id": 34015,
        "meta_element_set_no": 999,
        "meta_rev_at_epoch": 88451,
        "meta_bstar": 0.0019511602,
        "meta_mean_motion_dot": 9.405e-05,
        "meta_mean_motion_ddot": 0,
        "tle_line1": "1 34015U 93036HA  25341.30189145  .00009405  00000+0  19512-2 0  9997",
        "tle_line2": "2 34015  74.0230 169.8112 0021135 267.0117 271.5576 14.60142107884510"
      },
      "geometry": {
        "type": "Point",
        "coordinates": [
          -6.456344242200684,
          -15.814692743459503
        ]
      }
    },
    {
      "type": "Feature",
      "properties": {
        "norad_id": 34018,
        "name": "COSMOS 2251 DEB",
        "group": "cosmos-2251-debris",
        "lat": -48.01411278494952,
        "lon": 81.74457310011093,
        "alt_km": 1158.4340418050706,
        "timestamp": "2025-12-07T18:50:17.108297+00:00",
        "meta_object_name": "COSMOS 2251 DEB",
        "meta_object_id": "1993-036HD",
        "meta_epoch": "2025-12-07T07:03:05.064768",
        "meta_mean_motion": 13.81059793,
        "meta_eccentricity": 0.02640807,
        "meta_inclination": 73.8772,
        "meta_ra_of_asc_node": 101.324,
        "meta_arg_of_pericenter": 138.2375,
        "meta_mean_anomaly": 249.9228,
        "meta_ephemeris_type": 0,
        "meta_classification_type": "U",
        "meta_norad_cat_id": 34018,
        "meta_element_set_no": 999,
        "meta_rev_at_epoch": 84582,
        "meta_bstar": 0.0010137359,
        "meta_mean_motion_dot": 1.374e-05,
        "meta_mean_motion_ddot": 0,
        "tle_line1": "1 34018U 93036HD  25341.29380862  .00001374  00000+0  10137-2 0  9998",
        "tle_line2": "2 34018  73.8772 101.3240 0264080 138.2375 249.9228 13.81059793845821"
      },
      "geometry": {
        "type": "Point",
        "coordinates": [
          81.74457310011093,
          -48.01411278494952
        ]
      }
    },
    {
      "type": "Feature",
      "properties": {
        "norad_id": 34019,
        "name": "COSMOS 2251 DEB",
        "group": "cosmos-2251-debris",
        "lat": -30.587699303102557,
        "lon": -110.35282339216786,
        "alt_km": 745.3298027485953,
        "timestamp": "2025-12-07T18:50:17.108307+00:00",
        "meta_object_name": "COSMOS 2251 DEB",
        "meta_object_id": "1993-036HE",
        "meta_epoch": "2025-12-06T22:19:02.254080",
        "meta_mean_motion": 14.33892591,
        "meta_eccentricity": 0.0062732,
        "meta_inclination": 73.9552,
        "meta_ra_of_asc_node": 61.4246,
        "meta_arg_of_pericenter": 243.487,
        "meta_mean_anomaly": 236.7959,
        "meta_ephemeris_type": 0,
        "meta_classification_type": "U",
        "meta_norad_cat_id": 34019,
        "meta_element_set_no": 999,
        "meta_rev_at_epoch": 87437,
        "meta_bstar": 0.001574573,
        "meta_mean_motion_dot": 4.46e-05,
        "meta_mean_motion_ddot": 0,
        "tle_line1": "1 34019U 93036HE  25340.92988720  .00004460  00000+0  15746-2 0  9995",
        "tle_line2": "2 34019  73.9552  61.4246 0062732 243.4870 236.7959 14.33892591874376"
      },
      "geometry": {
        "type": "Point",
        "coordinates": [
          -110.35282339216786,
          -30.587699303102557
        ]
      }
    },
    {
      "type": "Feature",
      "properties": {
        "norad_id": 34021,
        "name": "COSMOS 2251 DEB",
        "group": "cosmos-2251-debris",
        "lat": 25.134111424017156,
        "lon": 146.84994059671934,
        "alt_km": 728.0410758205508,
        "timestamp": "2025-12-07T18:50:17.108317+00:00",
        "meta_object_name": "COSMOS 2251 DEB",
        "meta_object_id": "1993-036HG",
        "meta_epoch": "2025-12-07T04:37:51.844224",
        "meta_mean_motion": 14.49915727,
        "meta_eccentricity": 0.002081,
        "meta_inclination": 74.0354,
        "meta_ra_of_asc_node": 140.2426,
        "meta_arg_of_pericenter": 284.813,
        "meta_mean_anomaly": 252.6804,
        "meta_ephemeris_type": 0,
        "meta_classification_type": "U",
        "meta_norad_cat_id": 34021,
        "meta_element_set_no": 999,
        "meta_rev_at_epoch": 88549,
        "meta_bstar": 0.00081285903,
        "meta_mean_motion_dot": 3.125e-05,
        "meta_mean_motion_ddot": 0,
        "tle_line1": "1 34021U 93036HG  25341.19296116  .00003125  00000+0  81286-3 0  9999",
        "tle_line2": "2 34021  74.0354 140.2426 0020810 284.8130 252.6804 14.49915727885491"
      },
      "geometry": {
        "type": "Point",
        "coordinates": [
          146.84994059671934,
          25.134111424017156
        ]
      }
    }
  ]
}